IRIDIUM 171             
1 43929U 19002H   25005.57178173  .00000650  00000+0  22493-3 0  9993
2 43929  86.3977 214.2802 0002237  96.7799 263.3652 14.34224138313331
IRIDIUM 170             
1 43930U 19002J   25005.66774986  .00002145  00000+0  33604-3 0  9996
2 43930  86.6097 214.0241 0002315  79.9079 280.2399 14.72284299321640
IRIDIUM 167             
1 43931U 19002K   25005.56544965  .00000442  00000+0  15074-3 0  9997
2 43931  86.3967 214.0526 0001921  98.7147 261.4267 14.34215915313336
IRIDIUM 181             
1 56726U 23068S   25005.65008171  .00001153  00000+0  33477-3 0  9991
2 56726  86.6868 276.9067 0002615  89.2371 270.9129 14.43574905 86344
IRIDIUM 177             
1 56727U 23068T   25005.55677302  .00003302  00000+0  43072-3 0  9999
2 56727  86.1968 219.2614 0001958  87.0658 273.0787 14.80262614 88317
IRIDIUM 174             
1 56728U 23068U   25005.82181856  .00004104  00000+0  53660-3 0  9999
2 56728  86.1979 219.2554 0002548  85.5821 274.5691 14.80227238 88351
IRIDIUM 178             
1 56729U 23068V   25005.54599204  .00003079  00000+0  40177-3 0  9998
2 56729  86.5766 246.4226 0003020  86.8154 273.3413 14.80226065 88319
IRIDIUM 179             
1 56730U 23068W   25005.54057072  .00003299  00000+0  43101-3 0  9996
2 56730  86.6772 253.1071 0002289  87.0627 273.0857 14.80207693 88311
