<?xml version="1.0" encoding="UTF-8"?>
<ndm xmlns:xsi="http://www.w3.org/2001/XMLSchema-instance" xsi:noNamespaceSchemaLocation="https://sanaregistry.org/r/ndmxml_unqualified/ndmxml-2.0.0-master-2.0.xsd">
<omm id="CCSDS_OMM_VERS" version="2.0">
<header><CREATION_DATE/><ORIGINATOR/></header><body><segment><metadata><OBJECT_NAME>IRIDIUM 171</OBJECT_NAME><OBJECT_ID>2019-002H</OBJECT_ID><CENTER_NAME>EARTH</CENTER_NAME><REF_FRAME>TEME</REF_FRAME><TIME_SYSTEM>UTC</TIME_SYSTEM><MEAN_ELEMENT_THEORY>SGP4</MEAN_ELEMENT_THEORY></metadata><data><meanElements><EPOCH>2025-01-05T13:43:21.941472</EPOCH><MEAN_MOTION>14.34224138</MEAN_MOTION><ECCENTRICITY>.0002237</ECCENTRICITY><INCLINATION>86.3977</INCLINATION><RA_OF_ASC_NODE>214.2802</RA_OF_ASC_NODE><ARG_OF_PERICENTER>96.7799</ARG_OF_PERICENTER><MEAN_ANOMALY>263.3652</MEAN_ANOMALY></meanElements><tleParameters><EPHEMERIS_TYPE>0</EPHEMERIS_TYPE><CLASSIFICATION_TYPE>U</CLASSIFICATION_TYPE><NORAD_CAT_ID>43929</NORAD_CAT_ID><ELEMENT_SET_NO>999</ELEMENT_SET_NO><REV_AT_EPOCH>31333</REV_AT_EPOCH><BSTAR>.22493E-3</BSTAR><MEAN_MOTION_DOT>.65E-5</MEAN_MOTION_DOT><MEAN_MOTION_DDOT>0</MEAN_MOTION_DDOT></tleParameters></data></segment></body></omm>
<omm id="CCSDS_OMM_VERS" version="2.0">
<header><CREATION_DATE/><ORIGINATOR/></header><body><segment><metadata><OBJECT_NAME>IRIDIUM 170</OBJECT_NAME><OBJECT_ID>2019-002J</OBJECT_ID><CENTER_NAME>EARTH</CENTER_NAME><REF_FRAME>TEME</REF_FRAME><TIME_SYSTEM>UTC</TIME_SYSTEM><MEAN_ELEMENT_THEORY>SGP4</MEAN_ELEMENT_THEORY></metadata><data><meanElements><EPOCH>2025-01-05T16:01:33.587904</EPOCH><MEAN_MOTION>14.72284299</MEAN_MOTION><ECCENTRICITY>.0002315</ECCENTRICITY><INCLINATION>86.6097</INCLINATION><RA_OF_ASC_NODE>214.0241</RA_OF_ASC_NODE><ARG_OF_PERICENTER>79.9079</ARG_OF_PERICENTER><MEAN_ANOMALY>280.2399</MEAN_ANOMALY></meanElements><tleParameters><EPHEMERIS_TYPE>0</EPHEMERIS_TYPE><CLASSIFICATION_TYPE>U</CLASSIFICATION_TYPE><NORAD_CAT_ID>43930</NORAD_CAT_ID><ELEMENT_SET_NO>999</ELEMENT_SET_NO><REV_AT_EPOCH>32164</REV_AT_EPOCH><BSTAR>.33604E-3</BSTAR><MEAN_MOTION_DOT>.2145E-4</MEAN_MOTION_DOT><MEAN_MOTION_DDOT>0</MEAN_MOTION_DDOT></tleParameters></data></segment></body></omm>
<omm id="CCSDS_OMM_VERS" version="2.0">
<header><CREATION_DATE/><ORIGINATOR/></header><body><segment><metadata><OBJECT_NAME>IRIDIUM 167</OBJECT_NAME><OBJECT_ID>2019-002K</OBJECT_ID><CENTER_NAME>EARTH</CENTER_NAME><REF_FRAME>TEME</REF_FRAME><TIME_SYSTEM>UTC</TIME_SYSTEM><MEAN_ELEMENT_THEORY>SGP4</MEAN_ELEMENT_THEORY></metadata><data><meanElements><EPOCH>2025-01-05T13:34:14.849760</EPOCH><MEAN_MOTION>14.34215915</MEAN_MOTION><ECCENTRICITY>.0001921</ECCENTRICITY><INCLINATION>86.3967</INCLINATION><RA_OF_ASC_NODE>214.0526</RA_OF_ASC_NODE><ARG_OF_PERICENTER>98.7147</ARG_OF_PERICENTER><MEAN_ANOMALY>261.4267</MEAN_ANOMALY></meanElements><tleParameters><EPHEMERIS_TYPE>0</EPHEMERIS_TYPE><CLASSIFICATION_TYPE>U</CLASSIFICATION_TYPE><NORAD_CAT_ID>43931</NORAD_CAT_ID><ELEMENT_SET_NO>999</ELEMENT_SET_NO><REV_AT_EPOCH>31333</REV_AT_EPOCH><BSTAR>.15074E-3</BSTAR><MEAN_MOTION_DOT>.442E-5</MEAN_MOTION_DOT><MEAN_MOTION_DDOT>0</MEAN_MOTION_DDOT></tleParameters></data></segment></body></omm>
<omm id="CCSDS_OMM_VERS" version="2.0">
<header><CREATION_DATE/><ORIGINATOR/></header><body><segment><metadata><OBJECT_NAME>IRIDIUM 181</OBJECT_NAME><OBJECT_ID>2023-068S</OBJECT_ID><CENTER_NAME>EARTH</CENTER_NAME><REF_FRAME>TEME</REF_FRAME><TIME_SYSTEM>UTC</TIME_SYSTEM><MEAN_ELEMENT_THEORY>SGP4</MEAN_ELEMENT_THEORY></metadata><data><meanElements><EPOCH>2025-01-05T15:36:07.059744</EPOCH><MEAN_MOTION>14.43574905</MEAN_MOTION><ECCENTRICITY>.0002615</ECCENTRICITY><INCLINATION>86.6868</INCLINATION><RA_OF_ASC_NODE>276.9067</RA_OF_ASC_NODE><ARG_OF_PERICENTER>89.2371</ARG_OF_PERICENTER><MEAN_ANOMALY>270.9129</MEAN_ANOMALY></meanElements><tleParameters><EPHEMERIS_TYPE>0</EPHEMERIS_TYPE><CLASSIFICATION_TYPE>U</CLASSIFICATION_TYPE><NORAD_CAT_ID>56726</NORAD_CAT_ID><ELEMENT_SET_NO>999</ELEMENT_SET_NO><REV_AT_EPOCH>8634</REV_AT_EPOCH><BSTAR>.33477E-3</BSTAR><MEAN_MOTION_DOT>.1153E-4</MEAN_MOTION_DOT><MEAN_MOTION_DDOT>0</MEAN_MOTION_DDOT></tleParameters></data></segment></body></omm>
<omm id="CCSDS_OMM_VERS" version="2.0">
<header><CREATION_DATE/><ORIGINATOR/></header><body><segment><metadata><OBJECT_NAME>IRIDIUM 177</OBJECT_NAME><OBJECT_ID>2023-068T</OBJECT_ID><CENTER_NAME>EARTH</CENTER_NAME><REF_FRAME>TEME</REF_FRAME><TIME_SYSTEM>UTC</TIME_SYSTEM><MEAN_ELEMENT_THEORY>SGP4</MEAN_ELEMENT_THEORY></metadata><data><meanElements><EPOCH>2025-01-05T13:21:45.188928</EPOCH><MEAN_MOTION>14.80262614</MEAN_MOTION><ECCENTRICITY>.0001958</ECCENTRICITY><INCLINATION>86.1968</INCLINATION><RA_OF_ASC_NODE>219.2614</RA_OF_ASC_NODE><ARG_OF_PERICENTER>87.0658</ARG_OF_PERICENTER><MEAN_ANOMALY>273.0787</MEAN_ANOMALY></meanElements><tleParameters><EPHEMERIS_TYPE>0</EPHEMERIS_TYPE><CLASSIFICATION_TYPE>U</CLASSIFICATION_TYPE><NORAD_CAT_ID>56727</NORAD_CAT_ID><ELEMENT_SET_NO>999</ELEMENT_SET_NO><REV_AT_EPOCH>8831</REV_AT_EPOCH><BSTAR>.43072E-3</BSTAR><MEAN_MOTION_DOT>.3302E-4</MEAN_MOTION_DOT><MEAN_MOTION_DDOT>0</MEAN_MOTION_DDOT></tleParameters></data></segment></body></omm>
<omm id="CCSDS_OMM_VERS" version="2.0">
<header><CREATION_DATE/><ORIGINATOR/></header><body><segment><metadata><OBJECT_NAME>IRIDIUM 174</OBJECT_NAME><OBJECT_ID>2023-068U</OBJECT_ID><CENTER_NAME>EARTH</CENTER_NAME><REF_FRAME>TEME</REF_FRAME><TIME_SYSTEM>UTC</TIME_SYSTEM><MEAN_ELEMENT_THEORY>SGP4</MEAN_ELEMENT_THEORY></metadata><data><meanElements><EPOCH>2025-01-05T19:43:25.123584</EPOCH><MEAN_MOTION>14.80227238</MEAN_MOTION><ECCENTRICITY>.0002548</ECCENTRICITY><INCLINATION>86.1979</INCLINATION><RA_OF_ASC_NODE>219.2554</RA_OF_ASC_NODE><ARG_OF_PERICENTER>85.5821</ARG_OF_PERICENTER><MEAN_ANOMALY>274.5691</MEAN_ANOMALY></meanElements><tleParameters><EPHEMERIS_TYPE>0</EPHEMERIS_TYPE><CLASSIFICATION_TYPE>U</CLASSIFICATION_TYPE><NORAD_CAT_ID>56728</NORAD_CAT_ID><ELEMENT_SET_NO>999</ELEMENT_SET_NO><REV_AT_EPOCH>8835</REV_AT_EPOCH><BSTAR>.5366E-3</BSTAR><MEAN_MOTION_DOT>.4104E-4</MEAN_MOTION_DOT><MEAN_MOTION_DDOT>0</MEAN_MOTION_DDOT></tleParameters></data></segment></body></omm>
<omm id="CCSDS_OMM_VERS" version="2.0">
<header><CREATION_DATE/><ORIGINATOR/></header><body><segment><metadata><OBJECT_NAME>IRIDIUM 178</OBJECT_NAME><OBJECT_ID>2023-068V</OBJECT_ID><CENTER_NAME>EARTH</CENTER_NAME><REF_FRAME>TEME</REF_FRAME><TIME_SYSTEM>UTC</TIME_SYSTEM><MEAN_ELEMENT_THEORY>SGP4</MEAN_ELEMENT_THEORY></metadata><data><meanElements><EPOCH>2025-01-05T13:06:13.712256</EPOCH><MEAN_MOTION>14.80226065</MEAN_MOTION><ECCENTRICITY>.000302</ECCENTRICITY><INCLINATION>86.5766</INCLINATION><RA_OF_ASC_NODE>246.4226</RA_OF_ASC_NODE><ARG_OF_PERICENTER>86.8154</ARG_OF_PERICENTER><MEAN_ANOMALY>273.3413</MEAN_ANOMALY></meanElements><tleParameters><EPHEMERIS_TYPE>0</EPHEMERIS_TYPE><CLASSIFICATION_TYPE>U</CLASSIFICATION_TYPE><NORAD_CAT_ID>56729</NORAD_CAT_ID><ELEMENT_SET_NO>999</ELEMENT_SET_NO><REV_AT_EPOCH>8831</REV_AT_EPOCH><BSTAR>.40177E-3</BSTAR><MEAN_MOTION_DOT>.3079E-4</MEAN_MOTION_DOT><MEAN_MOTION_DDOT>0</MEAN_MOTION_DDOT></tleParameters></data></segment></body></omm>
<omm id="CCSDS_OMM_VERS" version="2.0">
<header><CREATION_DATE/><ORIGINATOR/></header><body><segment><metadata><OBJECT_NAME>IRIDIUM 179</OBJECT_NAME><OBJECT_ID>2023-068W</OBJECT_ID><CENTER_NAME>EARTH</CENTER_NAME><REF_FRAME>TEME</REF_FRAME><TIME_SYSTEM>UTC</TIME_SYSTEM><MEAN_ELEMENT_THEORY>SGP4</MEAN_ELEMENT_THEORY></metadata><data><meanElements><EPOCH>2025-01-05T12:58:25.310208</EPOCH><MEAN_MOTION>14.80207693</MEAN_MOTION><ECCENTRICITY>.0002289</ECCENTRICITY><INCLINATION>86.6772</INCLINATION><RA_OF_ASC_NODE>253.1071</RA_OF_ASC_NODE><ARG_OF_PERICENTER>87.0627</ARG_OF_PERICENTER><MEAN_ANOMALY>273.0857</MEAN_ANOMALY></meanElements><tleParameters><EPHEMERIS_TYPE>0</EPHEMERIS_TYPE><CLASSIFICATION_TYPE>U</CLASSIFICATION_TYPE><NORAD_CAT_ID>56730</NORAD_CAT_ID><ELEMENT_SET_NO>999</ELEMENT_SET_NO><REV_AT_EPOCH>8831</REV_AT_EPOCH><BSTAR>.43101E-3</BSTAR><MEAN_MOTION_DOT>.3299E-4</MEAN_MOTION_DOT><MEAN_MOTION_DDOT>0</MEAN_MOTION_DDOT></tleParameters></data></segment></body></omm>
</ndm>
